[{"id":"35682","name":"DUBAISAT-1","tle1":"1 35682U 09041B   26176.29670256  .00000823  00000+0  12934-3 0  9991","tle2":"2 35682  98.0059 309.4658 0011344  50.3717 309.8491 14.75135096906299"},{"id":"35931","name":"OCEANSAT-2","tle1":"1 35931U 09051A   26176.27745125 -.00000217  00000+0 -12266-3 0  9992","tle2":"2 35931  98.2320 162.3216 0015882 211.6951 148.3261 13.99662021880467"},{"id":"35946","name":"WORLDVIEW-2 (WV-2)","tle1":"1 35946U 09055A   26176.30536209  .00000091  00000+0  44598-4 0  9999","tle2":"2 35946  98.4735 249.6429 0004222 182.2220 177.8950 14.37901550876810"},{"id":"36036","name":"SMOS","tle1":"1 36036U 09059A   26176.25100903  .00000254  00000+0  94881-4 0  9997","tle2":"2 36036  98.4426   3.4677 0001315  88.8227 271.3112 14.39776651874617"},{"id":"36110","name":"YAOGAN-7","tle1":"1 36110U 09069A   26176.28039717  .00000459  00000+0  70619-4 0  9998","tle2":"2 36110  98.0064  62.0971 0025020  16.4628 343.7389 14.78017225890822"},{"id":"36605","name":"TANDEM-X","tle1":"1 36605U 10030A   26175.56897165  .00000223  00000+0  13790-4 0  9992","tle2":"2 36605  97.4453 183.1708 0001789  93.6569 266.4871 15.19149086887769"},{"id":"36795","name":"CARTOSAT-2B","tle1":"1 36795U 10035A   26176.25703914  .00000722  00000+0  10560-3 0  9997","tle2":"2 36795  97.9953 226.7557 0011907 157.8818 202.2909 14.78670940861043"},{"id":"36834","name":"YAOGAN-10","tle1":"1 36834U 10038A   26176.31287041  .00001901  00000+0  22714-3 0  9993","tle2":"2 36834  97.8979 199.6525 0001721  87.0748  41.5770 14.85371306858415"},{"id":"37216","name":"COSMO-SKYMED 4","tle1":"1 37216U 10060A   26176.27496979  .00000713  00000+0  96053-4 0  9998","tle2":"2 37216  97.8894 359.7575 0001461  87.0461 273.0919 14.82160027845767"},{"id":"37387","name":"RESOURCESAT-2","tle1":"1 37387U 11015A   26176.25342227  .00000074  00000+0  54100-4 0  9999","tle2":"2 37387  98.7641 243.6395 0010450 229.9042 130.1220 14.21601572787320"},{"id":"37781","name":"HAIYANG-2A","tle1":"1 37781U 11043A   26176.26510487  .00000117  00000+0  17006-3 0  9995","tle2":"2 37781  99.3397 178.7613 0005206  75.1786 284.9940 13.74169998747762"},{"id":"37791","name":"RASAT","tle1":"1 37791U 11044D   26176.29360707  .00000185  00000+0  40639-4 0  9992","tle2":"2 37791  98.0573 267.5668 0020802 163.0125 289.9266 14.68171990794379"},{"id":"37841","name":"SRMSAT","tle1":"1 37841U 11058D   26176.22718632  .00000368  00000+0  55867-4 0  9992","tle2":"2 37841  19.9735  10.8048 0011711 292.6715 223.4173 14.11577108758954"},{"id":"38012","name":"PLEIADES 1A","tle1":"1 38012U 11076F   26176.29496502  .00000116  00000+0  34699-4 0  9990","tle2":"2 38012  98.1973 251.2891 0001740  91.0426   0.5463 14.58534826773174"},{"id":"38038","name":"ZIYUAN 1-02C (ZY 1-02C)","tle1":"1 38038U 11079A   26176.28962700  .00000148  00000+0  62981-4 0  9998","tle2":"2 38038  98.4070 243.4290 0005185 287.7892 158.4557 14.38219799760379"},{"id":"38338","name":"ARIRANG-3 (KOMPSAT-3)","tle1":"1 38338U 12025B   26176.24436468  .00000386  00000+0  85937-4 0  9996","tle2":"2 38338  98.1174 133.5654 0006821  89.3323 270.8660 14.62212513752526"},{"id":"38709","name":"EXACTVIEW-1 (ADS-1B)","tle1":"1 38709U 12039C   26176.24539290  .00000099  00000+0  61977-4 0  9999","tle2":"2 38709  98.9785 293.8179 0011544 144.2545 215.9408 14.24986740723853"},{"id":"38755","name":"SPOT 6","tle1":"1 38755U 12047A   26176.29280110 -.00000164  00000+0 -25424-4 0  9990","tle2":"2 38755  98.2117 243.5074 0001354  75.6177 284.5172 14.58525963734235"},{"id":"39019","name":"PLEIADES 1B","tle1":"1 39019U 12068A   26176.24309822  .00000155  00000+0  43218-4 0  9993","tle2":"2 39019  98.1945 251.1841 0001698  88.0834 272.0560 14.58564462722027"},{"id":"39030","name":"GOKTURK 2","tle1":"1 39030U 12073A   26176.28615134  .00000072  00000+0  17497-4 0  9990","tle2":"2 39030  97.6824  13.3114 0001314  56.1074 304.0261 14.75548306725708"},{"id":"39084","name":"LANDSAT 8","tle1":"1 39084U 13008A   26176.26516025  .00000287  00000+0  73766-4 0  9994","tle2":"2 39084  98.2299 246.3044 0001359  93.3539 266.7815 14.57099418699072"},{"id":"39086","name":"SARAL","tle1":"1 39086U 13009A   26176.28092882  .00000099  00000+0  52173-4 0  9999","tle2":"2 39086  98.5558   2.7456 0000657 242.5436 117.5682 14.32857794696760"},{"id":"39150","name":"GAOFEN-1","tle1":"1 39150U 13018A   26176.33058703  .00000161  00000+0  30398-4 0  9996","tle2":"2 39150  97.9092 248.2333 0015808 237.8502 122.1175 14.76543377709440"},{"id":"39160","name":"VNREDSAT 1","tle1":"1 39160U 13021B   26176.28584509  .00000385  00000+0  80594-4 0  9994","tle2":"2 39160  97.9079 229.3915 0001731  85.5205 274.6196 14.64863746701473"},{"id":"39227","name":"ARIRANG-5 (KOMPSAT-5)","tle1":"1 39227U 13042A   26176.28021104  .00000760  00000+0  58626-4 0  9996","tle2":"2 39227  97.6194   2.8664 0005166 103.6806 256.4995 15.04505089705075"},{"id":"39418","name":"SKYSAT-A","tle1":"1 39418U 13066C   26176.12752602  .00002893  00000+0  16675-3 0  9997","tle2":"2 39418  97.3814 225.2717 0019688 287.9556  71.9529 15.13014167689688"},{"id":"39419","name":"DUBAISAT-2","tle1":"1 39419U 13066D   26176.28677458  .00003638  00000+0  22598-3 0  9999","tle2":"2 39419  97.4569 166.2187 0011546  16.2507 343.9090 15.10236975687612"},{"id":"39574","name":"GPM-CORE","tle1":"1 39574U 14009C   26176.23776334  .00012748  00000+0  27564-3 0  9997","tle2":"2 39574  64.9719 281.1614 0011496 254.8692 105.1177 15.44730242699059"},{"id":"39634","name":"SENTINEL-1A","tle1":"1 39634U 14016A   26176.32177323 -.00000255  00000+0 -44428-4 0  9996","tle2":"2 39634  98.1783 183.7358 0001393  82.3746 277.7612 14.59199756651206"},{"id":"39731","name":"KAZEOSAT 1","tle1":"1 39731U 14024A   26176.27845623 -.00000046  00000+0 -10887-5 0  9993","tle2":"2 39731  98.3204 248.5248 0001240  75.8536 284.2792 14.42082187639723"}]