OBJECT_NAME,OBJECT_ID,EPOCH,MEAN_MOTION,ECCENTRICITY,INCLINATION,RA_OF_ASC_NODE,ARG_OF_PERICENTER,MEAN_ANOMALY,EPHEMERIS_TYPE,CLASSIFICATION_TYPE,NORAD_CAT_ID,ELEMENT_SET_NO,REV_AT_EPOCH,BSTAR,MEAN_MOTION_DOT,MEAN_MOTION_DDOT
DUBAISAT-1,2009-041B,2026-06-25T07:07:15.101184,14.75135096,.00113449,98.0059,309.4658,50.3717,309.8491,0,U,35682,999,90629,.12933976E-3,.823E-5,0
OCEANSAT-2,2009-051A,2026-06-25T06:39:31.788000,13.99662021,.00158825,98.2320,162.3216,211.6951,148.3261,0,U,35931,999,88046,-.12266446E-3,-.217E-5,0
WORLDVIEW-2 (WV-2),2009-055A,2026-06-25T07:19:43.284576,14.37901550,.00042221,98.4735,249.6429,182.2220,177.8950,0,U,35946,999,87681,.44597879E-4,.91E-6,0
SMOS,2009-059A,2026-06-25T06:01:27.180192,14.39776651,.00013158,98.4426,3.4677,88.8227,271.3112,0,U,36036,999,87461,.94881213E-4,.254E-5,0
YAOGAN-7,2009-069A,2026-06-25T06:43:46.315488,14.78017225,.00250204,98.0064,62.0971,16.4628,343.7389,0,U,36110,999,89082,.70618688E-4,.459E-5,0
TANDEM-X,2010-030A,2026-06-24T13:39:19.150560,15.19149086,.0001789,97.4453,183.1708,93.6569,266.4871,0,U,36605,999,88776,.13790195E-4,.223E-5,0
CARTOSAT-2B,2010-035A,2026-06-25T06:10:08.181696,14.78670940,.00119072,97.9953,226.7557,157.8818,202.2909,0,U,36795,999,86104,.10560327E-3,.722E-5,0
YAOGAN-10,2010-038A,2026-06-25T07:30:32.003424,14.85371306,.00017213,97.8979,199.6525,87.0748,41.5770,0,U,36834,999,85841,.22714396E-3,.1901E-4,0
COSMO-SKYMED 4,2010-060A,2026-06-25T06:35:57.389856,14.82160027,.00014612,97.8894,359.7575,87.0461,273.0919,0,U,37216,999,84576,.96053134E-4,.713E-5,0
RESOURCESAT-2,2011-015A,2026-06-25T06:04:55.684128,14.21601572,.00104507,98.7641,243.6395,229.9042,130.1220,0,U,37387,999,78732,.54099634E-4,.74E-6,0
HAIYANG-2A,2011-043A,2026-06-25T06:21:45.060768,13.74169998,.00052068,99.3397,178.7613,75.1786,284.9940,0,U,37781,999,74776,.1700626E-3,.117E-5,0
RASAT,2011-044D,2026-06-25T07:02:47.650848,14.68171990,.00208021,98.0573,267.5668,163.0125,289.9266,0,U,37791,999,79437,.40639483E-4,.185E-5,0
SRMSAT,2011-058D,2026-06-25T05:27:08.898048,14.11577108,.00117113,19.9735,10.8048,292.6715,223.4173,0,U,37841,999,75895,.55866829E-4,.368E-5,0
PLEIADES 1A,2011-076F,2026-06-25T07:04:44.977728,14.58534826,.00017402,98.1973,251.2891,91.0426,0.5463,0,U,38012,999,77317,.3469913E-4,.116E-5,0
ZIYUAN 1-02C (ZY 1-02C),2011-079A,2026-06-25T06:57:03.772800,14.38219799,.00051853,98.4070,243.4290,287.7892,158.4557,0,U,38038,999,76037,.62981085E-4,.148E-5,0
ARIRANG-3 (KOMPSAT-3),2012-025B,2026-06-25T05:51:53.108352,14.62212513,.00068216,98.1174,133.5654,89.3323,270.8660,0,U,38338,999,75252,.85937214E-4,.386E-5,0
EXACTVIEW-1 (ADS-1B),2012-039C,2026-06-25T05:53:21.946560,14.24986740,.0011544,98.9785,293.8179,144.2545,215.9408,0,U,38709,999,72385,.61977211E-4,.99E-6,0
SPOT 6,2012-047A,2026-06-25T07:01:38.015040,14.58525963,.00013548,98.2117,243.5074,75.6177,284.5172,0,U,38755,999,73423,-.25423572E-4,-.164E-5,0
PLEIADES 1B,2012-068A,2026-06-25T05:50:03.686208,14.58564462,.00016988,98.1945,251.1841,88.0834,272.0560,0,U,39019,999,72202,.43218256E-4,.155E-5,0
GOKTURK 2,2012-073A,2026-06-25T06:52:03.475776,14.75548306,.00013146,97.6824,13.3114,56.1074,304.0261,0,U,39030,999,72570,.17497133E-4,.72E-6,0
LANDSAT 8,2013-008A,2026-06-25T06:21:49.845600,14.57099418,.00013597,98.2299,246.3044,93.3539,266.7815,0,U,39084,999,69907,.7376588E-4,.287E-5,0
SARAL,2013-009A,2026-06-25T06:44:32.250048,14.32857794,.00006571,98.5558,2.7456,242.5436,117.5682,0,U,39086,999,69676,.5217327E-4,.99E-6,0
GAOFEN-1,2013-018A,2026-06-25T07:56:02.719392,14.76543377,.00158085,97.9092,248.2333,237.8502,122.1175,0,U,39150,999,70944,.30397887E-4,.161E-5,0
VNREDSAT 1,2013-021B,2026-06-25T06:51:37.015776,14.64863746,.00017314,97.9079,229.3915,85.5205,274.6196,0,U,39160,999,70147,.80593739E-4,.385E-5,0
ARIRANG-5 (KOMPSAT-5),2013-042A,2026-06-25T06:43:30.233856,15.04505089,.00051665,97.6194,2.8664,103.6806,256.4995,0,U,39227,999,70507,.58626219E-4,.76E-5,0
SKYSAT-A,2013-066C,2026-06-25T03:03:38.248128,15.13014167,.00196883,97.3814,225.2717,287.9556,71.9529,0,U,39418,999,68968,.16675278E-3,.2893E-4,0
DUBAISAT-2,2013-066D,2026-06-25T06:52:57.323712,15.10236975,.00115467,97.4569,166.2187,16.2507,343.9090,0,U,39419,999,68761,.2259771E-3,.3638E-4,0
GPM-CORE,2014-009C,2026-06-25T05:42:22.752576,15.44730242,.00114969,64.9719,281.1614,254.8692,105.1177,0,U,39574,999,69905,.27564382E-3,.12748E-3,0
SENTINEL-1A,2014-016A,2026-06-25T07:43:21.207072,14.59199756,.00013936,98.1783,183.7358,82.3746,277.7612,0,U,39634,999,65120,-.44428213E-4,-.255E-5,0
KAZEOSAT 1,2014-024A,2026-06-25T06:40:58.618272,14.42082187,.00012407,98.3204,248.5248,75.8536,284.2792,0,U,39731,999,63972,-.1088703E-5,-.46E-6,0
